41186,ORBCOMM FM115,2015,98.6,172.0,+,47.0,Active,1,LEO,USA,ORBCOMM,Commercial,Communications,Falcon,1 41186U 15081H   24063.15950815  .00000860  00000+0  21125-3 0  9991,2 41186  46.9983 116.1127 0000550 308.0096  52.0741 14.60414576438873,14.60414576,5.5e-05,LEO
41187,ORBCOMM FM108,2015,98.88,172.0,+,47.0,Active,1,LEO,USA,ORBCOMM,Commercial,Communications,Falcon,1 41187U 15081J   24062.39645338  .00001044  00000+0  27089-3 0  9998,2 41187  47.0040 171.8575 0003127 291.6082  68.4469 14.56316192437989,14.56316192,0.0003127,LEO
41188,ORBCOMM FM117,2015,98.88,172.0,+,47.0,Active,1,LEO,USA,ORBCOMM,Commercial,Communications,Falcon,1 41188U 15081K   24062.43100297  .00000781  00000+0  21209-3 0  9999,2 41188  47.0002 170.6129 0003376 303.0000  57.0560 14.56320198438038,14.56320198,0.0003376,LEO
41189,ORBCOMM FM116,2015,98.88,172.0,+,47.0,Active,1,LEO,USA,ORBCOMM,Commercial,Communications,Falcon,1 41189U 15081L   24062.62603814  .00000763  00000+0  20806-3 0  9996,2 41189  47.0005 259.5089 0001617  50.1696 309.9331 14.56321851436873,14.56321851,0.0001617,LEO
